[
    {
        "Altitude(m)": 555226.4649873512,
        "Argument of Periapsis(deg)": 0.013245982221427002,
        "Eccentricity": 0.0,
        "Inclination(deg)": 53.0,
        "Latitude(deg)": 31.124536720325494,
        "Longitude(deg)": 60.32879944999552,
        "Mean Anomaly(deg)": 40.183185735155185,
        "RAAN(deg)": 134.98028673705602,
        "Satellite Name": "Starlink Shell 1 595",
        "Satellite Number": 595,
        "Semi-Major Axis(m)": 6931778.249405717,
        "Time(s)": 380
    },
    {
        "Altitude(m)": 555302.6453986985,
        "Argument of Periapsis(deg)": 0.013594560700938237,
        "Eccentricity": 0.0,
        "Inclination(deg)": 53.0,
        "Latitude(deg)": 31.57184968809541,
        "Longitude(deg)": 60.80311117825119,
        "Mean Anomaly(deg)": 40.810016938711904,
        "RAAN(deg)": 134.97976796697859,
        "Satellite Name": "Starlink Shell 1 595",
        "Satellite Number": 595,
        "Semi-Major Axis(m)": 6931778.249405717,
        "Time(s)": 390
    },
    {
        "Altitude(m)": 555379.6988581015,
        "Argument of Periapsis(deg)": 0.013943139180449475,
        "Eccentricity": 0.0,
        "Inclination(deg)": 53.0,
        "Latitude(deg)": 32.01703170802818,
        "Longitude(deg)": 61.28235296062221,
        "Mean Anomaly(deg)": 41.4368481422686,
        "RAAN(deg)": 134.97924919690107,
        "Satellite Name": "Starlink Shell 1 595",
        "Satellite Number": 595,
        "Semi-Major Axis(m)": 6931778.249405717,
        "Time(s)": 400
    },
    {
        "Altitude(m)": 555457.5705261389,
        "Argument of Periapsis(deg)": 0.014291717659960712,
        "Eccentricity": 0.0,
        "Inclination(deg)": 53.0,
        "Latitude(deg)": 32.46002571346059,
        "Longitude(deg)": 61.76663537551826,
        "Mean Anomaly(deg)": 42.06367934582532,
        "RAAN(deg)": 134.97873042682363,
        "Satellite Name": "Starlink Shell 1 595",
        "Satellite Number": 595,
        "Semi-Major Axis(m)": 6931778.249405717,
        "Time(s)": 410
    },
    {
        "Altitude(m)": 555536.2053511809,
        "Argument of Periapsis(deg)": 0.014640296139471948,
        "Eccentricity": 0.0,
        "Inclination(deg)": 53.0,
        "Latitude(deg)": 32.90077332403237,
        "Longitude(deg)": 62.25606967771793,
        "Mean Anomaly(deg)": 42.69051054938204,
        "RAAN(deg)": 134.97821165674614,
        "Satellite Name": "Starlink Shell 1 595",
        "Satellite Number": 595,
        "Semi-Major Axis(m)": 6931778.249405717,
        "Time(s)": 420
    },
    {
        "Altitude(m)": 555615.5480981636,
        "Argument of Periapsis(deg)": 0.014988874618983185,
        "Eccentricity": 0.0,
        "Inclination(deg)": 53.0,
        "Latitude(deg)": 33.33921481277873,
        "Longitude(deg)": 62.75076826296941,
        "Mean Anomaly(deg)": 43.317341752938766,
        "RAAN(deg)": 134.97769288666865,
        "Satellite Name": "Starlink Shell 1 595",
        "Satellite Number": 595,
        "Semi-Major Axis(m)": 6931778.249405717,
        "Time(s)": 430
    },
    {
        "Altitude(m)": 555695.5433773713,
        "Argument of Periapsis(deg)": 0.015337453098494424,
        "Eccentricity": 0.0,
        "Inclination(deg)": 53.0,
        "Latitude(deg)": 33.77528907316618,
        "Longitude(deg)": 63.25084512644147,
        "Mean Anomaly(deg)": 43.94417295649546,
        "RAAN(deg)": 134.9771741165912,
        "Satellite Name": "Starlink Shell 1 595",
        "Satellite Number": 595,
        "Semi-Major Axis(m)": 6931778.249405717,
        "Time(s)": 440
    },
    {
        "Altitude(m)": 555776.1356732782,
        "Argument of Periapsis(deg)": 0.01568603157800566,
        "Eccentricity": 0.0,
        "Inclination(deg)": 53.0,
        "Latitude(deg)": 34.20893358614645,
        "Longitude(deg)": 63.75641480171474,
        "Mean Anomaly(deg)": 44.57100416005218,
        "RAAN(deg)": 134.97665534651375,
        "Satellite Name": "Starlink Shell 1 595",
        "Satellite Number": 595,
        "Semi-Major Axis(m)": 6931778.249405717,
        "Time(s)": 450
    },
    {
        "Altitude(m)": 555857.269373388,
        "Argument of Periapsis(deg)": 0.0160346100575169,
        "Eccentricity": 0.0,
        "Inclination(deg)": 53.0,
        "Latitude(deg)": 34.64008438731334,
        "Longitude(deg)": 64.26759280560601,
        "Mean Anomaly(deg)": 45.19783536360888,
        "RAAN(deg)": 134.97613657643623,
        "Satellite Name": "Starlink Shell 1 595",
        "Satellite Number": 595,
        "Semi-Major Axis(m)": 6931778.249405717,
        "Time(s)": 460
    },
    {
        "Altitude(m)": 555938.8887970869,
        "Argument of Periapsis(deg)": 0.016383188537028134,
        "Eccentricity": 0.0,
        "Inclination(deg)": 53.0,
        "Latitude(deg)": 35.068676034253905,
        "Longitude(deg)": 64.78449607547446,
        "Mean Anomaly(deg)": 45.82466656716563,
        "RAAN(deg)": 134.97561780635877,
        "Satellite Name": "Starlink Shell 1 595",
        "Satellite Number": 595,
        "Semi-Major Axis(m)": 6931778.249405717,
        "Time(s)": 470
    },
    {
        "Altitude(m)": 556020.9382244676,
        "Argument of Periapsis(deg)": 0.01673176701653937,
        "Eccentricity": 0.0,
        "Inclination(deg)": 53.0,
        "Latitude(deg)": 35.49464157419259,
        "Longitude(deg)": 65.30724188563816,
        "Mean Anomaly(deg)": 46.45149777072234,
        "RAAN(deg)": 134.9750990362813,
        "Satellite Name": "Starlink Shell 1 595",
        "Satellite Number": 595,
        "Semi-Major Axis(m)": 6931778.249405717,
        "Time(s)": 480
    },
    {
        "Altitude(m)": 556103.3619251591,
        "Argument of Periapsis(deg)": 0.017080345496050607,
        "Eccentricity": 0.0,
        "Inclination(deg)": 53.0,
        "Latitude(deg)": 35.91791251204223,
        "Longitude(deg)": 65.83594826813506,
        "Mean Anomaly(deg)": 47.078328974279046,
        "RAAN(deg)": 134.97458026620382,
        "Satellite Name": "Starlink Shell 1 595",
        "Satellite Number": 595,
        "Semi-Major Axis(m)": 6931778.249405717,
        "Time(s)": 490
    },
    {
        "Altitude(m)": 556186.1041870668,
        "Argument of Periapsis(deg)": 0.017428923975561842,
        "Eccentricity": 0.0,
        "Inclination(deg)": 53.0,
        "Latitude(deg)": 36.338418778981364,
        "Longitude(deg)": 66.37073442441857,
        "Mean Anomaly(deg)": 47.70516017783576,
        "RAAN(deg)": 134.97406149612635,
        "Satellite Name": "Starlink Shell 1 595",
        "Satellite Number": 595,
        "Semi-Major Axis(m)": 6931778.249405717,
        "Time(s)": 500
    },
    {
        "Altitude(m)": 556269.1093451002,
        "Argument of Periapsis(deg)": 0.01777750245507308,
        "Eccentricity": 0.0,
        "Inclination(deg)": 53.0,
        "Latitude(deg)": 36.75608870168791,
        "Longitude(deg)": 66.9117196145608,
        "Mean Anomaly(deg)": 48.331991381392456,
        "RAAN(deg)": 134.9735427260489,
        "Satellite Name": "Starlink Shell 1 595",
        "Satellite Number": 595,
        "Semi-Major Axis(m)": 6931778.249405717,
        "Time(s)": 510
    },
    {
        "Altitude(m)": 556352.3218098136,
        "Argument of Periapsis(deg)": 0.018126080934584315,
        "Eccentricity": 0.0,
        "Inclination(deg)": 53.0,
        "Latitude(deg)": 37.1708489723761,
        "Longitude(deg)": 67.45902354914492,
        "Mean Anomaly(deg)": 48.9588225849492,
        "RAAN(deg)": 134.9730239559714,
        "Satellite Name": "Starlink Shell 1 595",
        "Satellite Number": 595,
        "Semi-Major Axis(m)": 6931778.249405717,
        "Time(s)": 520
    },
    {
        "Altitude(m)": 556435.6860959587,
        "Argument of Periapsis(deg)": 0.018474659414095554,
        "Eccentricity": 0.0,
        "Inclination(deg)": 53.0,
        "Latitude(deg)": 37.582624619789726,
        "Longitude(deg)": 68.01276677038855,
        "Mean Anomaly(deg)": 49.585653788505894,
        "RAAN(deg)": 134.97250518589394,
        "Satellite Name": "Starlink Shell 1 595",
        "Satellite Number": 595,
        "Semi-Major Axis(m)": 6931778.249405717,
        "Time(s)": 530
    },
    {
        "Altitude(m)": 556519.1468509566,
        "Argument of Periapsis(deg)": 0.018823237893606792,
        "Eccentricity": 0.0,
        "Inclination(deg)": 53.0,
        "Latitude(deg)": 37.99133898131952,
        "Longitude(deg)": 68.57306950902819,
        "Mean Anomaly(deg)": 50.21248499206262,
        "RAAN(deg)": 134.97198641581647,
        "Satellite Name": "Starlink Shell 1 595",
        "Satellite Number": 595,
        "Semi-Major Axis(m)": 6931778.249405717,
        "Time(s)": 540
    },
    {
        "Altitude(m)": 556602.6488832384,
        "Argument of Periapsis(deg)": 0.019171816373118027,
        "Eccentricity": 0.0,
        "Inclination(deg)": 53.0,
        "Latitude(deg)": 38.39691367642799,
        "Longitude(deg)": 69.14005204210812,
        "Mean Anomaly(deg)": 50.83931619561931,
        "RAAN(deg)": 134.97146764573898,
        "Satellite Name": "Starlink Shell 1 595",
        "Satellite Number": 595,
        "Semi-Major Axis(m)": 6931778.249405717,
        "Time(s)": 550
    },
    {
        "Altitude(m)": 556686.1371904779,
        "Argument of Periapsis(deg)": 0.019520394852629266,
        "Eccentricity": 0.0,
        "Inclination(deg)": 53.0,
        "Latitude(deg)": 38.799268581576314,
        "Longitude(deg)": 69.71383503818848,
        "Mean Anomaly(deg)": 51.46614739917604,
        "RAAN(deg)": 134.97094887566152,
        "Satellite Name": "Starlink Shell 1 595",
        "Satellite Number": 595,
        "Semi-Major Axis(m)": 6931778.249405717,
        "Time(s)": 560
    }
]